NORAD_CAT_ID,OBJECT_NAME,OBJECT_TYPE,EPOCH,MEAN_MOTION,ECCENTRICITY,INCLINATION,RA_OF_ASC_NODE,ARG_OF_PERICENTER,MEAN_ANOMALY,BSTAR,MEAN_MOTION_DOT,MEAN_MOTION_DDOT,TLE_LINE0,TLE_LINE1,TLE_LINE2,SEMIMAJOR_AXIS,PERIOD,APOGEE,PERIGEE,DECAYED
53007.0,STARLINK-4215,PAYLOAD,2022-12-26 13:57:26,15.08845888,0.0002404,53.2206,302.4499,39.187,320.9296,2.3288e-05,8.2e-07,0.0,0 STARLINK-4215,1 53007U 22076X   22360.58155651  .00000082  00000-0  23288-4 0  9998,2 53007  53.2206 302.4499 0002404  39.1870 320.9296 15.08845888 26356,6917.861999999999,95.437,541.39,538.064,0.0
53007.0,STARLINK-4215,PAYLOAD,2022-12-27 05:51:17,15.08856607,0.0002416,53.2199,299.4763,33.7187,326.3959,0.00020249,2.937e-05,0.0,0 STARLINK-4215,1 53007U 22076X   22361.24394763  .00002937  00000-0  20249-3 0  9995,2 53007  53.2199 299.4763 0002416  33.7187 326.3959 15.08856607 26920,6917.83,95.437,541.366,538.023,0.0
53007.0,STARLINK-4215,PAYLOAD,2022-12-27 07:26:40,15.08859382,0.0002385,53.2199,299.1791,34.2533,325.8613,0.00025163,3.721e-05,0.0,0 STARLINK-4215,1 53007U 22076X   22361.31018598  .00003721  00000-0  25163-3 0  9994,2 53007  53.2199 299.1791 0002385  34.2533 325.8613 15.08859382 26467,6917.821,95.436,541.336,538.036,0.0
53007.0,STARLINK-4215,PAYLOAD,2022-12-27 20:09:44,15.08858958,0.0002383,53.2198,296.8003,39.4038,320.7127,0.00039344,5.982e-05,0.0,0 STARLINK-4215,1 53007U 22076X   22361.84010344  .00005982  00000-0  39344-3 0  9990,2 53007  53.2198 296.8003 0002383  39.4038 320.7127 15.08858958 26542,6917.821999999999,95.436,541.336,538.039,0.0
53007.0,STARLINK-4215,PAYLOAD,2022-12-28 02:31:17,15.08852727,0.0002409,53.2197,295.6107,38.1063,322.0099,0.00014687,2.051e-05,0.0,0 STARLINK-4215,1 53007U 22076X   22362.10506382  .00002051  00000-0  14687-3 0  9999,2 53007  53.2197 295.6107 0002409  38.1063 322.0099 15.08852727 27054,6917.840999999999,95.437,541.373,538.04,0.0
53007.0,STARLINK-4215,PAYLOAD,2022-12-28 05:42:03,15.08851816,0.0002427,53.2196,295.0162,38.2654,321.851,0.00010416,1.3699999999999998e-05,0.0,0 STARLINK-4215,1 53007U 22076X   22362.23754300  .00001370  00000-0  10416-3 0  9997,2 53007  53.2196 295.0162 0002427  38.2654 321.8510 15.08851816 26608,6917.844,95.437,541.388,538.03,0.0
53007.0,STARLINK-4215,PAYLOAD,2022-12-29 05:32:52,15.08820858,0.0002381,53.2195,290.556,34.4878,325.6268,-0.00035915,-5.997e-05,0.0,0 STARLINK-4215,1 53007U 22076X   22363.23115970 -.00005997  00000-0 -35915-3 0  9994,2 53007  53.2195 290.5560 0002381  34.4878 325.6268 15.08820858 27227,6917.939,95.439,541.451,538.1569999999998,0.0
53007.0,STARLINK-4215,PAYLOAD,2022-12-29 11:54:25,15.08829299,0.0002363,53.2204,289.3665,34.3402,325.7742,-0.0001628,-2.878e-05,0.0,0 STARLINK-4215,1 53007U 22076X   22363.49612669 -.00002878  00000-0 -16280-3 0  9998,2 53007  53.2204 289.3665 0002363  34.3402 325.7742 15.08829299 26799,6917.913000000001,95.438,541.413,538.143,0.0
53007.0,STARLINK-4215,PAYLOAD,2022-12-29 19:51:20,15.0883218,0.0002269,53.2202,287.8798,33.2607,326.8527,-0.00011083,-2.051e-05,0.0,0 STARLINK-4215,1 53007U 22076X   22363.82732480 -.00002051  00000-0 -11083-3 0  9998,2 53007  53.2202 287.8798 0002269  33.2607 326.8527 15.08832180 27312,6917.904,95.438,541.339,538.2,0.0
53007.0,STARLINK-4215,PAYLOAD,2022-12-30 03:48:16,15.08838281,0.000242,53.2193,286.3934,33.9182,326.1965,0.00016355,2.315e-05,0.0,0 STARLINK-4215,1 53007U 22076X   22364.15852031  .00002315  00000-0  16355-3 0  9998,2 53007  53.2193 286.3934 0002420  33.9182 326.1965 15.08838281 27363,6917.886,95.438,541.425,538.077,0.0
53007.0,STARLINK-4215,PAYLOAD,2022-12-30 11:45:12,15.0885203,0.0002399,53.219,284.9067,33.5905,326.5239,0.0011857,0.00018639,0.0,0 STARLINK-4215,1 53007U 22076X   22364.48972482  .00018639  00000-0  11857-2 0  9994,2 53007  53.2190 284.9067 0002399  33.5905 326.5239 15.08852030 26944,6917.844,95.437,541.368,538.049,0.0
53007.0,STARLINK-4215,PAYLOAD,2022-12-30 19:42:07,15.08880788,0.0002315,53.2186,283.4202,34.0073,326.1067,0.001666,0.00026356,0.0,0 STARLINK-4215,1 53007U 22076X   22364.82091712  .00026356  00000-0  16660-2 0  9992,2 53007  53.2186 283.4202 0002315  34.0073 326.1067 15.08880788 27468,6917.755999999999,95.435,541.222,538.019,0.0
53007.0,STARLINK-4215,PAYLOAD,2022-12-31 11:35:57,15.08878948,0.0002334,53.2183,280.4466,34.8513,325.2631,0.00042624,6.509e-05,0.0,0 STARLINK-4215,1 53007U 22076X   22365.48330104  .00006509  00000-0  42624-3 0  9994,2 53007  53.2183 280.4466 0002334  34.8513 325.2631 15.08878948 27565,6917.761,95.435,541.241,538.012,0.0
53007.0,STARLINK-4215,PAYLOAD,2023-01-01 03:29:48,15.08838371,0.0002164,53.2183,277.4734,27.5423,332.5684,0.00065176,0.00010099,0.0,0 STARLINK-4215,1 53007U 22076X   23001.14570183  .00010099  00000-0  65176-3 0  9994,2 53007  53.2183 277.4734 0002164  27.5423 332.5684 15.08838371 27665,6917.885,95.438,541.247,538.253,0.0
53007.0,STARLINK-4215,PAYLOAD,2023-01-01 17:48:18,15.08814566,0.0002384,53.2186,274.7969,37.8867,322.2293,0.0011023,0.00017287,0.0,0 STARLINK-4215,1 53007U 22076X   23001.74187858  .00017287  00000-0  11023-2 0  9990,2 53007  53.2186 274.7969 0002384  37.8867 322.2293 15.08814566 27288,6917.958000000001,95.439,541.472,538.174,0.0
53007.0,STARLINK-4215,PAYLOAD,2023-01-02 00:09:51,15.0881885,0.0002416,53.2186,273.6081,37.6328,322.4833,0.0010958,0.00017185,0.0,0 STARLINK-4215,1 53007U 22076X   23002.00684298  .00017185  00000-0  10958-2 0  9993,2 53007  53.2186 273.6081 0002416  37.6328 322.4833 15.08818850 27795,6917.945,95.439,541.481,538.139,0.0
53007.0,STARLINK-4215,PAYLOAD,2023-01-02 11:17:33,15.08839927,0.0002426,53.2189,271.5254,38.824,321.2926,0.0011934,0.00018756,0.0,0 STARLINK-4215,1 53007U 22076X   23002.47052451  .00018756  00000-0  11934-2 0  9994,2 53007  53.2189 271.5254 0002426  38.8240 321.2926 15.08839927 27398,6917.880999999999,95.438,541.424,538.067,0.0
53007.0,STARLINK-4215,PAYLOAD,2023-01-03 03:11:24,15.08842966,0.000246,53.2194,268.5523,42.6762,317.4421,0.00058802,9.083e-05,0.0,0 STARLINK-4215,1 53007U 22076X   23003.13292679  .00009083  00000-0  58802-3 0  9995,2 53007  53.2194 268.5523 0002460  42.6762 317.4421 15.08842966 27966,6917.871,95.437,541.438,538.035,0.0
53007.0,STARLINK-4215,PAYLOAD,2023-01-03 11:08:20,15.08847873,0.0002478,53.2194,267.0653,42.4223,317.6961,0.00062017,9.598e-05,0.0,0 STARLINK-4215,1 53007U 22076X   23003.46412601  .00009598  00000-0  62017-3 0  9994,2 53007  53.2194 267.0653 0002478  42.4223 317.6961 15.08847873 27540,6917.856,95.437,541.436,538.007,0.0
53007.0,STARLINK-4215,PAYLOAD,2023-01-03 23:51:26,15.08829683,0.000229,53.2199,264.6865,44.1183,315.9992,2.4555e-05,1.02e-06,0.0,0 STARLINK-4215,1 53007U 22076X   23003.99405254  .00000102  00000-0  24555-4 0  9996,2 53007  53.2199 264.6865 0002290  44.1183 315.9992 15.08829683 28094,6917.9119999999975,95.438,541.361,538.193,0.0
53007.0,STARLINK-4215,PAYLOAD,2023-01-04 23:42:12,15.08858487,0.0002471,53.2192,260.2276,35.4415,324.6741,0.00048174,7.391e-05,0.0,0 STARLINK-4215,1 53007U 22076X   23004.98764190  .00007391  00000-0  48174-3 0  9992,2 53007  53.2192 260.2276 0002471  35.4415 324.6741 15.08858487 28247,6917.824000000001,95.436,541.398,537.979,0.0
53007.0,STARLINK-4215,PAYLOAD,2023-01-05 12:25:16,15.08874022,0.0002517,53.2177,257.8471,37.6015,322.5153,0.00070329,0.00010933,0.0,0 STARLINK-4215,1 53007U 22076X   23005.51755276  .00010933  00000-0  70329-3 0  9990,2 53007  53.2177 257.8471 0002517  37.6015 322.5153 15.08874022 27853,6917.776,95.435,541.383,537.9,0.0
53007.0,STARLINK-4215,PAYLOAD,2023-01-06 12:16:03,15.08825729,0.0002429,53.2177,253.3895,37.729,322.3872,-0.00034277,-5.738e-05,0.0,0 STARLINK-4215,1 53007U 22076X   23006.51115706 -.00005738  00000-0 -34277-3 0  9990,2 53007  53.2177 253.3895 0002429  37.7290 322.3872 15.08825729 28477,6917.924,95.438,541.469,538.109,0.0
53007.0,STARLINK-4215,PAYLOAD,2023-01-06 18:37:36,15.08817794,0.0002222,53.2176,252.1992,37.4973,322.6173,-0.00051116,-8.409e-05,0.0,0 STARLINK-4215,1 53007U 22076X   23006.77612252 -.00008409  00000-0 -51116-3 0  9995,2 53007  53.2176 252.1992 0002222  37.4973 322.6173 15.08817794 28040,6917.948,95.439,541.35,538.276,0.0
53007.0,STARLINK-4215,PAYLOAD,2023-01-07 02:34:33,15.0882388,0.0002364,53.2173,250.7123,36.8394,323.276,-0.00021666,-3.733e-05,0.0,0 STARLINK-4215,1 53007U 22076X   23007.10732704 -.00003733  00000-0 -21666-3 0  9990,2 53007  53.2173 250.7123 0002364  36.8394 323.2760 15.08823880 28091,6917.93,95.439,541.43,538.159,0.0
53007.0,STARLINK-4215,PAYLOAD,2023-01-07 18:28:24,15.08837508,0.0002408,53.2173,247.739,34.3504,325.7644,0.00046792,7.166e-05,0.0,0 STARLINK-4215,1 53007U 22076X   23007.76973158  .00007166  00000-0  46792-3 0  9991,2 53007  53.2173 247.7390 0002408  34.3504 325.7644 15.08837508 28661,6917.888000000001,95.438,541.419,538.087,0.0
53007.0,STARLINK-4215,PAYLOAD,2023-01-08 11:57:39,15.08848797,0.0002342,53.2168,244.4682,35.8912,324.2237,0.00058054,8.966e-05,0.0,0 STARLINK-4215,1 53007U 22076X   23008.49837201  .00008966  00000-0  58054-3 0  9993,2 53007  53.2168 244.4682 0002342  35.8912 324.2237 15.08848797 28304,6917.854,95.437,541.339,538.0980000000002,0.0
53007.0,STARLINK-4215,PAYLOAD,2023-01-08 18:19:11,15.08846216,0.0002314,53.2166,243.2787,36.3193,323.7956,0.000283,4.219e-05,0.0,0 STARLINK-4215,1 53007U 22076X   23008.76333132  .00004219  00000-0  28300-3 0  9995,2 53007  53.2166 243.2787 0002314  36.3193 323.7956 15.08846216 28341,6917.861,95.437,541.327,538.126,0.0
53007.0,STARLINK-4215,PAYLOAD,2023-01-09 08:37:39,15.08848781,0.0002277,53.2166,240.6023,37.8644,322.2508,0.00024287,3.58e-05,0.0,0 STARLINK-4215,1 53007U 22076X   23009.35948873  .00003580  00000-0  24287-3 0  9995,2 53007  53.2166 240.6023 0002277  37.8644 322.2508 15.08848781 28436,6917.854,95.437,541.294,538.143,0.0
